{
  "norad_id": 43874,
  "name": "TJS-3",
  "history": [
    {
      "epoch": "2026-03-28T17:01:12.178272Z",
      "apogee_km": 35841.10021773691,
      "perigee_km": 35692.699114627954,
      "latitude_deg": 2.3311478847970104,
      "longitude_deg": 93.58848344205981,
      "height_km": 35787.78947850795,
      "semi_major_axis_km": 42145.03666618244,
      "eccentricity": 0.0017606,
      "inclination_deg": 2.338,
      "raan_deg": 81.4463,
      "arg_perigee_deg": 346.6468,
      "mean_anomaly_deg": 106.7064,
      "mean_motion_rev_day": 1.00342082
    }
  ]
}