{"fetched_at":"2026-03-29T02:12:04Z","count":15717,"tles":[{"name":"TJS-3","line1":"1 43874U 18110A   26087.70916873 -.00000288  00000+0  00000+0 0  9998","line2":"2 43874   2.3380  81.4463 0017606 346.6468 106.7064  1.00342082 26616","category":"Other"}]}